PWSA_L_00003001-01
1 10000U 23230LU  26075.70050926  .00000000  00000+0  00000-0 0  9999
2 10000  81.0000   0.0000 0000000   0.0000   0.0000 13.82509308    12
PWSA_L_00003001-02
1 10001U 22310CX  26075.70050926  .00000000  00000+0  00000-0 0  9998
2 10001  81.0000   0.0000 0000000   0.0000  36.0000 13.82509308    12
PWSA_L_00003001-03
1 10002U 23250UJ  26075.70050926  .00000000  00000+0  00000-0 0  9993
2 10002  81.0000   0.0000 0000000   0.0000  72.0000 13.82509308    13
PWSA_L_00003001-04
1 10003U 25148GM  26075.70050926  .00000000  00000+0  00000-0 0  9992
2 10003  81.0000   0.0000 0000000   0.0000 108.0000 13.82509308    14
PWSA_L_00003001-05
1 10004U 23667IN  26075.70050926  .00000000  00000+0  00000-0 0  9997
2 10004  81.0000   0.0000 0000000   0.0000 144.0000 13.82509308    15
PWSA_L_00003001-06
1 10005U 25641U   26075.70050926  .00000000  00000+0  00000-0 0  9992
2 10005  81.0000   0.0000 0000000   0.0000 180.0000 13.82509308    16
